CCSDS_OMM_VERS = 2.0
CREATION_DATE  = 
ORIGINATOR     = 

OBJECT_NAME    = UNKNOWN
OBJECT_ID      = 
CENTER_NAME    = EARTH
REF_FRAME      = TEME
TIME_SYSTEM    = UTC
MEAN_ELEMENT_THEORY = SGP/SGP4

EPOCH          = 2025-10-22T16:32:07.733760
MEAN_MOTION    = 14.13272122
ECCENTRICITY   = .0073805
INCLINATION    = 98.9046
RA_OF_ASC_NODE = 201.3521
ARG_OF_PERICENTER = 337.5876
MEAN_ANOMALY   = 52.6381

EPHEMERIS_TYPE = 0
CLASSIFICATION_TYPE = U
NORAD_CAT_ID   = 82250
ELEMENT_SET_NO = 999
REV_AT_EPOCH   = 60942
BSTAR          = .26181E-2
MEAN_MOTION_DOT = .4994E-4
MEAN_MOTION_DDOT = 0

CCSDS_OMM_VERS = 2.0
CREATION_DATE  = 
ORIGINATOR     = 

OBJECT_NAME    = UNKNOWN
OBJECT_ID      = 
CENTER_NAME    = EARTH
REF_FRAME      = TEME
TIME_SYSTEM    = UTC
MEAN_ELEMENT_THEORY = SGP/SGP4

EPOCH          = 2025-10-21T09:57:09.487296
MEAN_MOTION    = 12.33491533
ECCENTRICITY   = .0753822
INCLINATION    = 67.5244
RA_OF_ASC_NODE = 295.4914
ARG_OF_PERICENTER = 140.2623
MEAN_ANOMALY   = 225.6176

EPHEMERIS_TYPE = 0
CLASSIFICATION_TYPE = U
NORAD_CAT_ID   = 82272
ELEMENT_SET_NO = 999
REV_AT_EPOCH   = 26548
BSTAR          = .80603E-3
MEAN_MOTION_DOT = .214E-5
MEAN_MOTION_DDOT = 0

CCSDS_OMM_VERS = 2.0
CREATION_DATE  = 
ORIGINATOR     = 

OBJECT_NAME    = UNKNOWN
OBJECT_ID      = 
CENTER_NAME    = EARTH
REF_FRAME      = TEME
TIME_SYSTEM    = UTC
MEAN_ELEMENT_THEORY = SGP/SGP4

EPOCH          = 2025-10-14T07:51:14.590944
MEAN_MOTION    = 14.31090859
ECCENTRICITY   = .0131012
INCLINATION    = 66.6195
RA_OF_ASC_NODE = 304.4383
ARG_OF_PERICENTER = 263.3779
MEAN_ANOMALY   = 95.2392

EPHEMERIS_TYPE = 0
CLASSIFICATION_TYPE = U
NORAD_CAT_ID   = 82295
ELEMENT_SET_NO = 999
REV_AT_EPOCH   = 57122
BSTAR          = .58038E-3
MEAN_MOTION_DOT = .1593E-4
MEAN_MOTION_DDOT = 0

CCSDS_OMM_VERS = 2.0
CREATION_DATE  = 
ORIGINATOR     = 

OBJECT_NAME    = UNKNOWN
OBJECT_ID      = 
CENTER_NAME    = EARTH
REF_FRAME      = TEME
TIME_SYSTEM    = UTC
MEAN_ELEMENT_THEORY = SGP/SGP4

EPOCH          = 2025-10-25T07:01:00.465600
MEAN_MOTION    = 13.82901626
ECCENTRICITY   = .0080596
INCLINATION    = 81.9121
RA_OF_ASC_NODE = 44.8993
ARG_OF_PERICENTER = 152.1842
MEAN_ANOMALY   = 237.4582

EPHEMERIS_TYPE = 0
CLASSIFICATION_TYPE = U
NORAD_CAT_ID   = 82303
ELEMENT_SET_NO = 999
REV_AT_EPOCH   = 50772
BSTAR          = .36513E-1
MEAN_MOTION_DOT = .41024E-3
MEAN_MOTION_DDOT = 0

CCSDS_OMM_VERS = 2.0
CREATION_DATE  = 
ORIGINATOR     = 

OBJECT_NAME    = UNKNOWN
OBJECT_ID      = 
CENTER_NAME    = EARTH
REF_FRAME      = TEME
TIME_SYSTEM    = UTC
MEAN_ELEMENT_THEORY = SGP/SGP4

EPOCH          = 2025-10-24T09:58:16.348800
MEAN_MOTION    = 13.54453334
ECCENTRICITY   = .0109783
INCLINATION    = 99.4382
RA_OF_ASC_NODE = 353.4822
ARG_OF_PERICENTER = 73.2126
MEAN_ANOMALY   = 288.1022

EPHEMERIS_TYPE = 0
CLASSIFICATION_TYPE = U
NORAD_CAT_ID   = 82311
ELEMENT_SET_NO = 999
REV_AT_EPOCH   = 54364
BSTAR          = .11699E-2
MEAN_MOTION_DOT = .789E-5
MEAN_MOTION_DDOT = 0

CCSDS_OMM_VERS = 2.0
CREATION_DATE  = 
ORIGINATOR     = 

OBJECT_NAME    = UNKNOWN
OBJECT_ID      = 
CENTER_NAME    = EARTH
REF_FRAME      = TEME
TIME_SYSTEM    = UTC
MEAN_ELEMENT_THEORY = SGP/SGP4

EPOCH          = 2025-10-13T02:14:51.082656
MEAN_MOTION    = 13.15562544
ECCENTRICITY   = .0461768
INCLINATION    = 66.9395
RA_OF_ASC_NODE = 323.8300
ARG_OF_PERICENTER = 204.6365
MEAN_ANOMALY   = 153.1979

EPHEMERIS_TYPE = 0
CLASSIFICATION_TYPE = U
NORAD_CAT_ID   = 82363
ELEMENT_SET_NO = 999
REV_AT_EPOCH   = 28228
BSTAR          = .16574E-2
MEAN_MOTION_DOT = .1013E-4
MEAN_MOTION_DDOT = 0

CCSDS_OMM_VERS = 2.0
CREATION_DATE  = 
ORIGINATOR     = 

OBJECT_NAME    = UNKNOWN
OBJECT_ID      = 
CENTER_NAME    = EARTH
REF_FRAME      = TEME
TIME_SYSTEM    = UTC
MEAN_ELEMENT_THEORY = SGP/SGP4

EPOCH          = 2025-10-24T00:15:36.399744
MEAN_MOTION    = 13.98127524
ECCENTRICITY   = .0084108
INCLINATION    = 98.9030
RA_OF_ASC_NODE = 313.5784
ARG_OF_PERICENTER = 116.0862
MEAN_ANOMALY   = 244.8988

EPHEMERIS_TYPE = 0
CLASSIFICATION_TYPE = U
NORAD_CAT_ID   = 82369
ELEMENT_SET_NO = 999
REV_AT_EPOCH   = 55022
BSTAR          = .50474E-4
MEAN_MOTION_DOT = .32E-6
MEAN_MOTION_DDOT = 0

CCSDS_OMM_VERS = 2.0
CREATION_DATE  = 
ORIGINATOR     = 

OBJECT_NAME    = UNKNOWN
OBJECT_ID      = 
CENTER_NAME    = EARTH
REF_FRAME      = TEME
TIME_SYSTEM    = UTC
MEAN_ELEMENT_THEORY = SGP/SGP4

EPOCH          = 2025-10-25T01:25:02.693280
MEAN_MOTION    = 14.77562213
ECCENTRICITY   = .0010106
INCLINATION    = 98.3980
RA_OF_ASC_NODE = 160.6771
ARG_OF_PERICENTER = 312.5265
MEAN_ANOMALY   = 47.5089

EPHEMERIS_TYPE = 0
CLASSIFICATION_TYPE = U
NORAD_CAT_ID   = 82381
ELEMENT_SET_NO = 999
REV_AT_EPOCH   = 50361
BSTAR          = .3538E-2
MEAN_MOTION_DOT = .25319E-3
MEAN_MOTION_DDOT = 0

CCSDS_OMM_VERS = 2.0
CREATION_DATE  = 
ORIGINATOR     = 

OBJECT_NAME    = UNKNOWN
OBJECT_ID      = 
CENTER_NAME    = EARTH
REF_FRAME      = TEME
TIME_SYSTEM    = UTC
MEAN_ELEMENT_THEORY = SGP/SGP4

EPOCH          = 2025-10-24T02:30:24.961248
MEAN_MOTION    = 15.02637573
ECCENTRICITY   = .000825
INCLINATION    = 86.6738
RA_OF_ASC_NODE = 177.0137
ARG_OF_PERICENTER = 4.6891
MEAN_ANOMALY   = 355.4418

EPHEMERIS_TYPE = 0
CLASSIFICATION_TYPE = U
NORAD_CAT_ID   = 82402
ELEMENT_SET_NO = 999
REV_AT_EPOCH   = 44701
BSTAR          = .52767E-3
MEAN_MOTION_DOT = .7064E-4
MEAN_MOTION_DDOT = 0

CCSDS_OMM_VERS = 2.0
CREATION_DATE  = 
ORIGINATOR     = 

OBJECT_NAME    = UNKNOWN
OBJECT_ID      = 
CENTER_NAME    = EARTH
REF_FRAME      = TEME
TIME_SYSTEM    = UTC
MEAN_ELEMENT_THEORY = SGP/SGP4

EPOCH          = 2025-10-25T15:25:31.852128
MEAN_MOTION    = 14.58243239
ECCENTRICITY   = .0057047
INCLINATION    = 74.0074
RA_OF_ASC_NODE = 72.2999
ARG_OF_PERICENTER = 248.5231
MEAN_ANOMALY   = 110.9844

EPHEMERIS_TYPE = 0
CLASSIFICATION_TYPE = U
NORAD_CAT_ID   = 82432
ELEMENT_SET_NO = 999
REV_AT_EPOCH   = 47589
BSTAR          = .80236E-3
MEAN_MOTION_DOT = .3761E-4
MEAN_MOTION_DDOT = 0

CCSDS_OMM_VERS = 2.0
CREATION_DATE  = 
ORIGINATOR     = 

OBJECT_NAME    = UNKNOWN
OBJECT_ID      = 
CENTER_NAME    = EARTH
REF_FRAME      = TEME
TIME_SYSTEM    = UTC
MEAN_ELEMENT_THEORY = SGP/SGP4

EPOCH          = 2025-10-25T05:26:29.040000
MEAN_MOTION    = 15.02814597
ECCENTRICITY   = .001204
INCLINATION    = 85.8761
RA_OF_ASC_NODE = 225.2206
ARG_OF_PERICENTER = 79.6293
MEAN_ANOMALY   = 280.6296

EPHEMERIS_TYPE = 0
CLASSIFICATION_TYPE = U
NORAD_CAT_ID   = 82448
ELEMENT_SET_NO = 999
REV_AT_EPOCH   = 42975
BSTAR          = .71814E-3
MEAN_MOTION_DOT = .966E-4
MEAN_MOTION_DDOT = 0

CCSDS_OMM_VERS = 2.0
CREATION_DATE  = 
ORIGINATOR     = 

OBJECT_NAME    = UNKNOWN
OBJECT_ID      = 
CENTER_NAME    = EARTH
REF_FRAME      = TEME
TIME_SYSTEM    = UTC
MEAN_ELEMENT_THEORY = SGP/SGP4

EPOCH          = 2025-10-24T14:38:52.125792
MEAN_MOTION    = 12.39698311
ECCENTRICITY   = .0093902
INCLINATION    = 102.1665
RA_OF_ASC_NODE = 254.0276
ARG_OF_PERICENTER = 298.0558
MEAN_ANOMALY   = 61.1034

EPHEMERIS_TYPE = 0
CLASSIFICATION_TYPE = U
NORAD_CAT_ID   = 82453
ELEMENT_SET_NO = 999
REV_AT_EPOCH   = 53997
BSTAR          = .3331E-3
MEAN_MOTION_DOT = -.1E-7
MEAN_MOTION_DDOT = 0

CCSDS_OMM_VERS = 2.0
CREATION_DATE  = 
ORIGINATOR     = 

OBJECT_NAME    = UNKNOWN
OBJECT_ID      = 
CENTER_NAME    = EARTH
REF_FRAME      = TEME
TIME_SYSTEM    = UTC
MEAN_ELEMENT_THEORY = SGP/SGP4

EPOCH          = 2025-10-24T18:33:12.902400
MEAN_MOTION    = 14.22335814
ECCENTRICITY   = .0044906
INCLINATION    = 66.5148
RA_OF_ASC_NODE = 311.0021
ARG_OF_PERICENTER = 40.7381
MEAN_ANOMALY   = 319.7055

EPHEMERIS_TYPE = 0
CLASSIFICATION_TYPE = U
NORAD_CAT_ID   = 82458
ELEMENT_SET_NO = 999
REV_AT_EPOCH   = 60307
BSTAR          = .17103E-2
MEAN_MOTION_DOT = .3765E-4
MEAN_MOTION_DDOT = 0

CCSDS_OMM_VERS = 2.0
CREATION_DATE  = 
ORIGINATOR     = 

OBJECT_NAME    = UNKNOWN
OBJECT_ID      = 
CENTER_NAME    = EARTH
REF_FRAME      = TEME
TIME_SYSTEM    = UTC
MEAN_ELEMENT_THEORY = SGP/SGP4

EPOCH          = 2025-10-25T07:57:51.294816
MEAN_MOTION    = 13.55764814
ECCENTRICITY   = .0043653
INCLINATION    = 99.3615
RA_OF_ASC_NODE = 322.4344
ARG_OF_PERICENTER = 318.9217
MEAN_ANOMALY   = 40.8637

EPHEMERIS_TYPE = 0
CLASSIFICATION_TYPE = U
NORAD_CAT_ID   = 82484
ELEMENT_SET_NO = 999
REV_AT_EPOCH   = 58407
BSTAR          = .28737E-3
MEAN_MOTION_DOT = .16E-5
MEAN_MOTION_DDOT = 0

CCSDS_OMM_VERS = 2.0
CREATION_DATE  = 
ORIGINATOR     = 

OBJECT_NAME    = UNKNOWN
OBJECT_ID      = 
CENTER_NAME    = EARTH
REF_FRAME      = TEME
TIME_SYSTEM    = UTC
MEAN_ELEMENT_THEORY = SGP/SGP4

EPOCH          = 2025-10-23T22:27:13.328352
MEAN_MOTION    = 14.83325496
ECCENTRICITY   = .0006037
INCLINATION    = 74.0066
RA_OF_ASC_NODE = 120.8173
ARG_OF_PERICENTER = 248.6190
MEAN_ANOMALY   = 111.4344

EPHEMERIS_TYPE = 0
CLASSIFICATION_TYPE = U
NORAD_CAT_ID   = 82494
ELEMENT_SET_NO = 999
REV_AT_EPOCH   = 7757
BSTAR          = .26061E-2
MEAN_MOTION_DOT = .2139E-3
MEAN_MOTION_DDOT = 0

CCSDS_OMM_VERS = 2.0
CREATION_DATE  = 
ORIGINATOR     = 

OBJECT_NAME    = UNKNOWN
OBJECT_ID      = 
CENTER_NAME    = EARTH
REF_FRAME      = TEME
TIME_SYSTEM    = UTC
MEAN_ELEMENT_THEORY = SGP/SGP4

EPOCH          = 2025-10-16T04:55:05.261664
MEAN_MOTION    = 14.17743097
ECCENTRICITY   = .0121236
INCLINATION    = 70.9658
RA_OF_ASC_NODE = 125.5502
ARG_OF_PERICENTER = 203.7517
MEAN_ANOMALY   = 155.7984

EPHEMERIS_TYPE = 0
CLASSIFICATION_TYPE = U
NORAD_CAT_ID   = 82500
ELEMENT_SET_NO = 999
REV_AT_EPOCH   = 61079
BSTAR          = .19502E-2
MEAN_MOTION_DOT = .4229E-4
MEAN_MOTION_DDOT = 0

